{
  "type": "FeatureCollection",
  "features": [
    {
      "type": "Feature",
      "properties": {
        "norad_id": 37126,
        "name": "COSMOS 2251 DEB",
        "group": "cosmos-2251-debris",
        "lat": 73.92248764268092,
        "lon": 52.43241807376074,
        "alt_km": 673.3411310260544,
        "timestamp": "2025-12-27T17:24:57.805336+00:00",
        "meta_object_name": "COSMOS 2251 DEB",
        "meta_object_id": "1993-036BGY",
        "meta_epoch": "2025-12-25T14:28:40.048320",
        "meta_mean_motion": 14.73111648,
        "meta_eccentricity": 0.0122556,
        "meta_inclination": 73.9501,
        "meta_ra_of_asc_node": 329.3283,
        "meta_arg_of_pericenter": 204.6714,
        "meta_mean_anomaly": 154.8568,
        "meta_ephemeris_type": 0,
        "meta_classification_type": "U",
        "meta_norad_cat_id": 37126,
        "meta_element_set_no": 999,
        "meta_rev_at_epoch": 8288,
        "meta_bstar": 0.00020497,
        "meta_mean_motion_dot": 1.448e-05,
        "meta_mean_motion_ddot": 0,
        "tle_line1": "1 37126U 93036BGY 25359.60324130  .00001448  00000+0  20497-3 0  9994",
        "tle_line2": "2 37126  73.9501 329.3283 0122556 204.6714 154.8568 14.73111648 82880"
      },
      "geometry": {
        "type": "Point",
        "coordinates": [
          52.43241807376074,
          73.92248764268092
        ]
      }
    },
    {
      "type": "Feature",
      "properties": {
        "norad_id": 37132,
        "name": "COSMOS 2251 DEB",
        "group": "cosmos-2251-debris",
        "lat": 42.298004553946,
        "lon": -140.30677916120695,
        "alt_km": 612.5195700227296,
        "timestamp": "2025-12-27T17:24:57.805347+00:00",
        "meta_object_name": "COSMOS 2251 DEB",
        "meta_object_id": "1993-036BHE",
        "meta_epoch": "2025-12-26T07:06:11.287872",
        "meta_mean_motion": 14.78001376,
        "meta_eccentricity": 0.0040558,
        "meta_inclination": 74.0015,
        "meta_ra_of_asc_node": 207.3729,
        "meta_arg_of_pericenter": 0.16,
        "meta_mean_anomaly": 359.958,
        "meta_ephemeris_type": 0,
        "meta_classification_type": "U",
        "meta_norad_cat_id": 37132,
        "meta_element_set_no": 999,
        "meta_rev_at_epoch": 62616,
        "meta_bstar": 0.00084408,
        "meta_mean_motion_dot": 6.146e-05,
        "meta_mean_motion_ddot": 0,
        "tle_line1": "1 37132U 93036BHE 25360.29596398  .00006146  00000+0  84408-3 0  9997",
        "tle_line2": "2 37132  74.0015 207.3729 0040558   0.1600 359.9580 14.78001376626161"
      },
      "geometry": {
        "type": "Point",
        "coordinates": [
          -140.30677916120695,
          42.298004553946
        ]
      }
    },
    {
      "type": "Feature",
      "properties": {
        "norad_id": 37270,
        "name": "COSMOS 2251 DEB",
        "group": "cosmos-2251-debris",
        "lat": -38.28948895834536,
        "lon": -61.70326109499449,
        "alt_km": 746.5149330893564,
        "timestamp": "2025-12-27T17:24:57.805357+00:00",
        "meta_object_name": "COSMOS 2251 DEB",
        "meta_object_id": "1993-036BHJ",
        "meta_epoch": "2025-12-12T22:45:06.098400",
        "meta_mean_motion": 13.59808663,
        "meta_eccentricity": 0.03985351,
        "meta_inclination": 73.9378,
        "meta_ra_of_asc_node": 335.5481,
        "meta_arg_of_pericenter": 347.3958,
        "meta_mean_anomaly": 11.7404,
        "meta_ephemeris_type": 0,
        "meta_classification_type": "U",
        "meta_norad_cat_id": 37270,
        "meta_element_set_no": 999,
        "meta_rev_at_epoch": 77072,
        "meta_bstar": 0.0064936549,
        "meta_mean_motion_dot": 8.148e-05,
        "meta_mean_motion_ddot": 0,
        "tle_line1": "1 37270U 93036BHJ 25346.94798725  .00008148  00000+0  64937-2 0  9992",
        "tle_line2": "2 37270  73.9378 335.5481 0398535 347.3958  11.7404 13.59808663770728"
      },
      "geometry": {
        "type": "Point",
        "coordinates": [
          -61.70326109499449,
          -38.28948895834536
        ]
      }
    },
    {
      "type": "Feature",
      "properties": {
        "norad_id": 37278,
        "name": "COSMOS 2251 DEB",
        "group": "cosmos-2251-debris",
        "lat": 69.18637761736927,
        "lon": 12.203679560324106,
        "alt_km": 739.2722605526942,
        "timestamp": "2025-12-27T17:24:57.805367+00:00",
        "meta_object_name": "COSMOS 2251 DEB",
        "meta_object_id": "1993-036BHS",
        "meta_epoch": "2025-12-22T06:43:10.079328",
        "meta_mean_motion": 14.15136552,
        "meta_eccentricity": 0.02988964,
        "meta_inclination": 73.7862,
        "meta_ra_of_asc_node": 332.08,
        "meta_arg_of_pericenter": 152.8639,
        "meta_mean_anomaly": 274.4968,
        "meta_ephemeris_type": 0,
        "meta_classification_type": "U",
        "meta_norad_cat_id": 37278,
        "meta_element_set_no": 999,
        "meta_rev_at_epoch": 63964,
        "meta_bstar": 0.0007998951,
        "meta_mean_motion_dot": 2.366e-05,
        "meta_mean_motion_ddot": 0,
        "tle_line1": "1 37278U 93036BHS 25356.27997777  .00002366  00000+0  79990-3 0  9997",
        "tle_line2": "2 37278  73.7862 332.0800 0298896 152.8639 274.4968 14.15136552639645"
      },
      "geometry": {
        "type": "Point",
        "coordinates": [
          12.203679560324106,
          69.18637761736927
        ]
      }
    },
    {
      "type": "Feature",
      "properties": {
        "norad_id": 37280,
        "name": "COSMOS 2251 DEB",
        "group": "cosmos-2251-debris",
        "lat": -69.54699205352246,
        "lon": -99.56460134218408,
        "alt_km": 851.6222746931098,
        "timestamp": "2025-12-27T17:24:57.805377+00:00",
        "meta_object_name": "COSMOS 2251 DEB",
        "meta_object_id": "1993-036BHU",
        "meta_epoch": "2025-12-24T08:42:55.097280",
        "meta_mean_motion": 14.19374869,
        "meta_eccentricity": 0.01298569,
        "meta_inclination": 74.0307,
        "meta_ra_of_asc_node": 36.2886,
        "meta_arg_of_pericenter": 162.4519,
        "meta_mean_anomaly": 198.1176,
        "meta_ephemeris_type": 0,
        "meta_classification_type": "U",
        "meta_norad_cat_id": 37280,
        "meta_element_set_no": 999,
        "meta_rev_at_epoch": 57488,
        "meta_bstar": 0.0012209104,
        "meta_mean_motion_dot": 2.768e-05,
        "meta_mean_motion_ddot": 0,
        "tle_line1": "1 37280U 93036BHU 25358.36313770  .00002768  00000+0  12209-2 0  9992",
        "tle_line2": "2 37280  74.0307  36.2886 0129856 162.4519 198.1176 14.19374869574882"
      },
      "geometry": {
        "type": "Point",
        "coordinates": [
          -99.56460134218408,
          -69.54699205352246
        ]
      }
    },
    {
      "type": "Feature",
      "properties": {
        "norad_id": 37284,
        "name": "COSMOS 2251 DEB",
        "group": "cosmos-2251-debris",
        "lat": -69.54680015699972,
        "lon": 0.4122188559019941,
        "alt_km": 747.3639406844468,
        "timestamp": "2025-12-27T17:24:57.805388+00:00",
        "meta_object_name": "COSMOS 2251 DEB",
        "meta_object_id": "1993-036BHY",
        "meta_epoch": "2025-12-27T01:29:06.152928",
        "meta_mean_motion": 14.12751332,
        "meta_eccentricity": 0.01626393,
        "meta_inclination": 74.02,
        "meta_ra_of_asc_node": 131.3831,
        "meta_arg_of_pericenter": 280.0443,
        "meta_mean_anomaly": 203.0218,
        "meta_ephemeris_type": 0,
        "meta_classification_type": "U",
        "meta_norad_cat_id": 37284,
        "meta_element_set_no": 999,
        "meta_rev_at_epoch": 59377,
        "meta_bstar": 0.0014930988,
        "meta_mean_motion_dot": 3.117e-05,
        "meta_mean_motion_ddot": 0,
        "tle_line1": "1 37284U 93036BHY 25361.06187677  .00003117  00000+0  14931-2 0  9995",
        "tle_line2": "2 37284  74.0200 131.3831 0162639 280.0443 203.0218 14.12751332593773"
      },
      "geometry": {
        "type": "Point",
        "coordinates": [
          0.4122188559019941,
          -69.54680015699972
        ]
      }
    },
    {
      "type": "Feature",
      "properties": {
        "norad_id": 37292,
        "name": "COSMOS 2251 DEB",
        "group": "cosmos-2251-debris",
        "lat": -49.14154353372874,
        "lon": -136.949588655636,
        "alt_km": 1020.2944424982516,
        "timestamp": "2025-12-27T17:24:57.805398+00:00",
        "meta_object_name": "COSMOS 2251 DEB",
        "meta_object_id": "1993-036BJG",
        "meta_epoch": "2025-12-26T09:31:08.762016",
        "meta_mean_motion": 14.03365148,
        "meta_eccentricity": 0.0209173,
        "meta_inclination": 74.1335,
        "meta_ra_of_asc_node": 26.1539,
        "meta_arg_of_pericenter": 25.0938,
        "meta_mean_anomaly": 336.0187,
        "meta_ephemeris_type": 0,
        "meta_classification_type": "U",
        "meta_norad_cat_id": 37292,
        "meta_element_set_no": 999,
        "meta_rev_at_epoch": 60040,
        "meta_bstar": 0.0019214,
        "meta_mean_motion_dot": 3.623e-05,
        "meta_mean_motion_ddot": 0,
        "tle_line1": "1 37292U 93036BJG 25360.39662919  .00003623  00000+0  19214-2 0  9997",
        "tle_line2": "2 37292  74.1335  26.1539 0209173  25.0938 336.0187 14.03365148600406"
      },
      "geometry": {
        "type": "Point",
        "coordinates": [
          -136.949588655636,
          -49.14154353372874
        ]
      }
    }
  ]
}